[{"OBJECT_NAME":"ONEWEB-0356","OBJECT_ID":"2021-090E","EPOCH":"2026-03-09T16:21:42.962400","MEAN_MOTION":13.20770247,"ECCENTRICITY":7.619e-5,"INCLINATION":87.9168,"RA_OF_ASC_NODE":294.3024,"ARG_OF_PERICENTER":76.5341,"MEAN_ANOMALY":283.5878,"EPHEMERIS_TYPE":0,"CLASSIFICATION_TYPE":"U","NORAD_CAT_ID":49283,"ELEMENT_SET_NO":999,"REV_AT_EPOCH":21669,"BSTAR":-0.00012805887,"MEAN_MOTION_DOT":-3.9e-7,"MEAN_MOTION_DDOT":0},{"OBJECT_NAME":"SL-14 DEB","OBJECT_ID":"1991-056BA","EPOCH":"2026-03-09T09:01:39.905184","MEAN_MOTION":13.20381684,"ECCENTRICITY":0.00056112,"INCLINATION":82.5194,"RA_OF_ASC_NODE":197.6003,"ARG_OF_PERICENTER":1.9774,"MEAN_ANOMALY":358.1371,"EPHEMERIS_TYPE":0,"CLASSIFICATION_TYPE":"U","NORAD_CAT_ID":45312,"ELEMENT_SET_NO":999,"REV_AT_EPOCH":29138,"BSTAR":0.0014704192,"MEAN_MOTION_DOT":6.07e-6,"MEAN_MOTION_DDOT":0}]
